[{"OBJECT_NAME":"STARLINK-11184 [DTC]","OBJECT_ID":"2024-113N","EPOCH":"2026-03-09T12:43:53.648256","MEAN_MOTION":15.69719605,"ECCENTRICITY":9.107e-5,"INCLINATION":53.1596,"RA_OF_ASC_NODE":192.2174,"ARG_OF_PERICENTER":80.2771,"MEAN_ANOMALY":279.835,"EPHEMERIS_TYPE":0,"CLASSIFICATION_TYPE":"U","NORAD_CAT_ID":60071,"ELEMENT_SET_NO":999,"REV_AT_EPOCH":9953,"BSTAR":-1.4564466e-5,"MEAN_MOTION_DOT":-2.353e-5,"MEAN_MOTION_DDOT":0},{"OBJECT_NAME":"OBJECT AC","OBJECT_ID":"2021-022AC","EPOCH":"2026-03-09T23:52:41.913120","MEAN_MOTION":15.70257251,"ECCENTRICITY":0.00077249,"INCLINATION":97.3906,"RA_OF_ASC_NODE":343.806,"ARG_OF_PERICENTER":62.9634,"MEAN_ANOMALY":297.2416,"EPHEMERIS_TYPE":0,"CLASSIFICATION_TYPE":"U","NORAD_CAT_ID":47958,"ELEMENT_SET_NO":999,"REV_AT_EPOCH":27427,"BSTAR":0.0010525747,"MEAN_MOTION_DOT":0.00129469,"MEAN_MOTION_DDOT":0}]
